{
  "Austin": [
    {
      "ZipCode": "78704",
      "Name": "South Congress"
    },
    {
      "ZipCode": "78704",
      "Name": "Bouldin Creek"
    },
    {
      "ZipCode": "78704",
      "Name": "Travis Heights"
    },
    {
      "ZipCode": "78704",
      "Name": "Barton Hills"
    },
    {
      "ZipCode": "78746",
      "Name": "City of Westlake"
    },
    {
      "ZipCode": "78746",
      "Name": "Rollingwood"
    },
    {
      "ZipCode": "78746",
      "Name": "Westlake Hills"
    },
    {
      "ZipCode": "78746",
      "Name": "Lost Creek"
    },
    {
      "ZipCode": "78746",
      "Name": "Stratford Hills"
    },
    {
      "ZipCode": "78746",
      "Name": "Rob Roy"
    },
    {
      "ZipCode": "78746",
      "Name": "Davenport Ranch"
    },
    {
      "ZipCode": "78759",
      "Name": "Great Hills"
    },
    {
      "ZipCode": "78759",
      "Name": "Jollyville"
    },
    {
      "ZipCode": "78759",
      "Name": "The Domain"
    },
    {
      "ZipCode": "78759",
      "Name": "The Arboretum"
    },
    {
      "ZipCode": "78759",
      "Name": "Bull Creek"
    },
    {
      "ZipCode": "78759",
      "Name": "St. Edwards Trail"
    },
    {
      "ZipCode": "78703",
      "Name": "Tarrytown"
    },
    {
      "ZipCode": "78703",
      "Name": "Clarksville"
    },
    {
      "ZipCode": "78703",
      "Name": "Shoal Creek"
    },
    {
      "ZipCode": "78703",
      "Name": "Old Enfield"
    },
    {
      "ZipCode": "78703",
      "Name": "Crestview"
    },
    {
      "ZipCode": "78703",
      "Name": "Westfield"
    },
    {
      "ZipCode": "78703",
      "Name": "Bryker Woods"
    },
    {
      "ZipCode": "78703",
      "Name": "Pemberton Heights"
    },
    {
      "ZipCode": "78703",
      "Name": "Lake Austin"
    },
    {
      "ZipCode": "78731",
      "Name": "Rosedale"
    },
    {
      "ZipCode": "78731",
      "Name": "Allandale"
    },
    {
      "ZipCode": "78731",
      "Name": "Balcones Park"
    },
    {
      "ZipCode": "78749",
      "Name": "Heights at Loma Vista"
    },
    {
      "ZipCode": "78749",
      "Name": "Legend Oaks"
    },
    {
      "ZipCode": "78749",
      "Name": "Circle C"
    },
    {
      "ZipCode": "78749",
      "Name": "Western Oaks"
    },
    {
      "ZipCode": "78749",
      "Name": "Maple Run"
    },
    {
      "ZipCode": "78749",
      "Name": "Deer Haven"
    },
    {
      "ZipCode": "78749",
      "Name": "Oak Park"
    },
    {
      "ZipCode": "78748",
      "Name": "Manchaca Gardens"
    },
    {
      "ZipCode": "78748",
      "Name": "Southland Oaks"
    },
    {
      "ZipCode": "78748",
      "Name": "Buckingham Estates"
    },
    {
      "ZipCode": "78748",
      "Name": "South Slaughter"
    },
    {
      "ZipCode": "78748",
      "Name": "Onion Creek"
    },
    {
      "ZipCode": "78748",
      "Name": "Cherry Creek"
    },
    {
      "ZipCode": "78745",
      "Name": "Sunset Valley"
    },
    {
      "ZipCode": "78745",
      "Name": "Flournoy Acres"
    },
    {
      "ZipCode": "78745",
      "Name": "Cherry Meadows"
    },
    {
      "ZipCode": "78745",
      "Name": "Grand Oaks"
    },
    {
      "ZipCode": "78745",
      "Name": "Cherry Creek"
    },
    {
      "ZipCode": "78745",
      "Name": "Southhampton Hills"
    },
    {
      "ZipCode": "78702",
      "Name": "East 6th"
    },
    {
      "ZipCode": "78702",
      "Name": "Holly Street"
    },
    {
      "ZipCode": "78702",
      "Name": "Govalle"
    },
    {
      "ZipCode": "78702",
      "Name": "East Ceasar Chave"
    },
    {
      "ZipCode": "78702",
      "Name": "Chestnut"
    },
    {
      "ZipCode": "78702",
      "Name": "East 11th Street"
    },
    {
      "ZipCode": "78750",
      "Name": "Spicewood"
    },
    {
      "ZipCode": "78750",
      "Name": "Anderson Mill"
    },
    {
      "ZipCode": "78750",
      "Name": "Balcones Village"
    },
    {
      "ZipCode": "78750",
      "Name": "Bull Creek"
    },
    {
      "ZipCode": "78750",
      "Name": "Spicewood Vista"
    },
    {
      "ZipCode": "78750",
      "Name": "Jester"
    },
    {
      "ZipCode": "78750",
      "Name": "Lakewood Park"
    }
  ]
}